#cP2022  3 25 12  0  0.00000000     576 d+D   IGb14 EXT AIUB
## 2202 475200.00000000   300.00000000 59663 0.5000000000000
+   76   G01G02G03G04G05G06G07G08G09G10G11G12G13G14G15G16G17
+        G18G19G21G22G23G24G25G26G27G28G29G30G31G32R01R02R03
+        R04R05R07R08R09R12R13R14R15R17R18R19R20R21R22R24E01
+        E02E03E04E05E07E08E09E10E11E12E13E14E15E18E19E21E24
+        E25E26E27E30E31E33E34E36  0  0  0  0  0  0  0  0  0
++         6  7  6  8  7  6  7  6  5  6  8  7  7  7  7  7  7
++         8  7  8  7  6  6  6  6  6  7  7  6  7  6  8  6  7
++         7  7  7  7  7  7  8  7  7  8  7  8  8  8  8  8  6
++         6  7  6  6  6  7  6  7  6  7  6  7  6  6  7  6  6
++         6  6  6  6  6  6  7  6  0  0  0  0  0  0  0  0  0
%c M  cc GPS ccc cccc cccc cccc cccc ccccc ccccc ccccc ccccc
%c cc cc ccc ccc cccc cccc cccc cccc ccccc ccccc ccccc ccccc
%f  1.2500000  1.025000000  0.00000000000  0.000000000000000
%f  0.0000000  0.000000000  0.00000000000  0.000000000000000
%i    0    0    0    0      0      0      0      0         0
%i    0    0    0    0      0      0      0      0         0
/* Center for Orbit Determination in Europe (CODE)          
/* Ultra-rapid GRE orbits starting year-day 22084 12 hour   
/* Observed/predicted: 24/24 hours (data used up to 085L)   
/* PCV:IGS14      OL/AL:FES2014b NONE     YN ORB:CoN CLK:BRD
*  2022  3 27  2 55  0.00000000
PG01   1470.803018  14856.261219 -22228.062829    399.321914               P   P
PG02  18929.451324 -15615.265265  10992.551599   -652.671354               P   P
PG03   9965.245292  21175.761538 -12768.185629   -181.115130               P   P
PG04    445.343113  24666.829136   9733.616250   -180.710221               P   P
PG05   4894.084080 -15212.002781  21029.777806    -76.110160               P   P
PG06  25811.037789  -5186.875308  -3763.147797    245.121095               P   P
PG07  18050.632087   8203.039198  18290.692366    317.934274               P   P
PG08  -5648.136724  25750.766423    377.261736    -61.456831               P   P
PG09   9077.408058  17566.812216  17650.551753   -347.484663               P   P
PG10 -21916.618619  -9055.407225 -12110.174541   -359.371577               P   P
PG11  20635.466815 -12798.201040  10746.685656    -59.493290               P   P
PG12  -5413.959500 -21257.669484 -15331.568327   -191.009595               P   P
PG13  13198.975173 -21897.986339   6713.729564    283.646483               P   P
PG14  21680.118945  10226.566546 -11526.723762    -97.570620               P   P
PG15   2131.856351 -26298.653761   -696.851156    -73.685044               P   P
PG16 -10170.484384  10932.383302  21675.211296   -485.181380               P   P
PG17  14809.402730   1062.771412 -21599.084026    592.490540               P   P
PG18 -17512.730316  -8034.243813  18321.052236    210.410115               P   P
PG19  16479.479037  -6430.227002 -20011.821808    136.319015               P   P
PG21  -9635.729126  16781.830196 -17226.578622    159.838856               P   P
PG22 -16319.231519  10087.055118 -17880.978133    233.750477               P   P
PG23 -20801.545579 -16480.395768  -2012.139574    -10.140230               P   P
PG24   2235.619164 -17083.429132 -20414.845204    263.997498               P   P
PG25 -16898.876367 -20181.283507  -4825.120013    303.786651               P   P
PG26 -18975.763979   1850.562122  18528.139385    193.959645               P   P
PG27 -12362.556934  20432.584103  10981.030446    166.582840               P   P
PG28  19083.082177   3287.808379 -17559.483421    374.857130               P   P
PG29  -6020.473812 -19279.248679  17168.854303   -496.068387               P   P
PG30  23772.965639   2332.078906  11946.975952   -520.797854               P   P
PG31 -26040.267788   6284.004890  -1389.405385   -170.723670               P   P
PG32 -15742.806693   2612.618145 -21061.677048    -92.779109               P   P
PR01  10343.782976  21072.442375  10006.821282      7.374212               P   P
PR02  11614.072091   3399.407989  22493.781934    513.684260               P   P
PR03   6194.535504 -14935.007065  19797.738596     53.774565               P   P
PR04  -2597.279647 -24620.504209   6197.355060    133.744750               P   P
PR05  -9867.239991 -20871.811552 -10857.405307     90.042129               P   P
PR07  -5849.264725  15503.066775 -19332.396269     33.143838               P   P
PR08   2774.051401  24629.784046  -5914.693532    -64.219418               P   P
PR09 -24435.583236  -3789.575201   6122.657497     46.537863               P   P
PR12  19559.787817  11608.545770  11544.783425     17.601997               P   P
PR13  24597.017633   4586.499937  -4972.848787    -19.983388               P   P
PR14  14933.783574  -5634.172129 -19895.547926     75.809658               P   P
PR15  -3084.223849 -12073.949083 -22243.011842     97.287819               P   P
PR17  18795.804864 -17219.858517   -231.986037    512.746675               P   P
PR18   9359.709142 -17954.316894  15567.291679    111.601211               P   P
PR19  -3893.472214 -10148.655481  23075.416744   -183.098730               P   P
PR20 -18115.190631   5634.949963  17031.260792    -67.480164               P   P
PR21 -18424.163227  17611.133074  -1250.963905   -288.484542               P   P
PR22  -8680.582060  17561.888749 -16287.856568   -173.011172               P   P
PR24  18495.607564  -6392.458918 -16343.044700     86.269994               P   P
PE01 -17005.505882 -21585.840895 -11020.046259   -604.555806               P   P
PE02  17119.960158  21543.340820  10871.758913    288.861362               P   P
PE03   7398.520661  25046.849662  13944.692931   -541.576173               P   P
PE04 -16158.349768  -7017.817002 -23777.326649   -993.257686               P   P
PE05  -5886.669105  28689.998298  -4283.904332   -196.595845               P   P
PE07  15568.848529 -15585.119974  19777.096287   -652.391298               P   P
PE08  16131.171026   6545.190842  23946.292635   -501.945371               P   P
PE09 -15323.453587  15884.712864 -19722.631837   -463.114526               P   P
PE10 -27579.250985   7015.925514   8132.458491   -502.921455               P   P
PE11 -26214.827405  13554.326079  -2136.499919   4125.178218               P   P
PE12 -24557.515526   -531.814530  16498.803819   4693.466946               P   P
PE13  26437.931308 -13250.381515   1452.788725    427.592589               P   P
PE14 -15242.968580  -2462.441486  18490.855071  -1792.417672               P   P
PE15  24481.933937    513.795897 -16632.388593    755.364017               P   P
PE18  17947.453079  10428.383133 -24414.981017  -1636.768272               P   P
PE19  -5733.665663 -26442.856492 -11998.755589  -1988.847863               P   P
PE21    522.664965 -18797.775233 -22867.033002   -724.880826               P   P
PE24 -19750.232803   3953.854393  21682.237706   -527.416671               P   P
PE25   -806.862780  18666.823534  22955.529046   -568.221594               P   P
PE26  11888.857805 -19220.551669  19122.956125   -959.108010               P   P
PE27  18821.372191  -5104.626486 -22265.889526   -262.292653               P   P
PE30  25802.939142  12322.997492  -7625.398215   -381.143878               P   P
PE31 -25905.809420 -11487.920238   8567.047819   -494.130834               P   P
PE33  -8077.665667 -13931.247378  24840.448065   -458.198138               P   P
PE34   8335.523686  13803.575803 -24826.602103   -508.878152               P   P
PE36 -12845.768120  19135.246020 -18561.524611   -350.995869               P   P
EOF
